GLOBALSTAR M084         
1 38040U 11080A   25097.60321491 -.00000081  00000+0  12553-3 0  9992
2 38040  52.0001 263.3572 0000584 126.5146 320.2559 12.62264654613751
GLOBALSTAR M080         
1 38041U 11080B   25097.56416632 -.00000091  00000+0  69337-4 0  9994
2 38041  52.0054 265.0586 0000854 138.2811 250.7793 12.62291623613879
GLOBALSTAR M082         
1 38042U 11080C   25097.51092943 -.00000098  00000+0  29952-4 0  9991
2 38042  52.0068 220.6572 0000842  84.3727   3.1707 12.62264923614577
GLOBALSTAR M092         
1 38043U 11080D   25097.17888714 -.00000062  00000+0  23250-3 0  9998
2 38043  52.0092 312.0423 0000712  88.3648  50.1082 12.62262201612986
GLOBALSTAR M090         
1 38044U 11080E   25097.61994389 -.00000101  00000+0  14971-4 0  9999
2 38044  51.9881 214.2251 0000744 104.5494 358.2212 12.62268854614707
GLOBALSTAR M086         
1 38045U 11080F   25097.62685373 -.00000099  00000+0  24668-4 0  9991
2 38045  51.9893 214.7495 0001429 144.1139 230.4833 12.62269005614656
GLOBALSTAR M097         
1 39072U 13005A   25097.25431472 -.00000095  00000+0  51335-4 0  9996
2 39072  52.0023 130.3588 0000541 112.3691 247.7233 12.62271616561853
GLOBALSTAR M093         
1 39073U 13005B   25097.46515652 -.00000082  00000+0  11944-3 0  9990
2 39073  51.9787 123.1305 0000493 107.2595 252.8326 12.62263546561839
